IRIDIUM 106             
1 41917U 17003A   25045.97167477  .00000504  00000+0  17296-3 0  9993
2 41917  86.3956 292.1239 0002441  80.6795 279.4677 14.34224802423376
IRIDIUM 103             
1 41918U 17003B   25045.95901562  .00000494  00000+0  16933-3 0  9998
2 41918  86.3955 292.0302 0002430  98.5805 261.5666 14.34218276423394
IRIDIUM 109             
1 41919U 17003C   25045.96534914  .00000172  00000+0  54396-4 0  9992
2 41919  86.3955 292.0790 0001979  90.8032 269.3390 14.34218004423366
IRIDIUM 102             
1 41920U 17003D   25046.42200741  .00000497  00000+0  17036-3 0  9993
2 41920  86.3954 291.8219 0002054  82.8336 277.3093 14.34222095423514
IRIDIUM 105             
1 41921U 17003E   25046.53228853  .00000292  00000+0  97357-4 0  9998
2 41921  86.3919 260.1884 0002197  89.3567 270.7881 14.34216371425388
IRIDIUM 104             
1 41922U 17003F   25046.43470117 -.00000009  00000+0 -10120-4 0  9991
2 41922  86.3954 291.8514 0001773 101.1193 259.0202 14.34217276423500
IRIDIUM 114             
1 41923U 17003G   25045.95266560  .00000082  00000+0  22274-4 0  9995
2 41923  86.3957 292.0384 0002237  91.1378 269.0074 14.34217226423414
IRIDIUM 108             
1 41924U 17003H   25046.12049094 -.00000157  00000+0 -63105-4 0  9990
2 41924  86.3922 260.2694 0002161  82.1126 278.0315 14.34216425425314
